STARLINK-37683          
1 69367U 26123Q   26168.58334491 -.01781609  00000+0 -11839-1 0  9991
2 69367  53.1592 239.3389 0000798  68.9191 346.6662 15.77727358  3214
STARLINK-37687          
1 69368U 26123R   26168.58334491  .00069934  00000+0  35543-3 0  9999
2 69368  53.1583 239.2816 0000974  79.1216   4.3430 15.80846036  3217
STARLINK-37631          
1 69369U 26123S   26168.58334491 -.00040738  00000+0 -20356-3 0  9999
2 69369  53.1583 239.2912 0001214  82.7022 356.2375 15.80900877  3264
STARLINK-37673          
1 69370U 26123T   26168.58334491 -.00039312  00000+0 -19633-3 0  9993
2 69370  53.1580 239.2861 0001258  80.9519   0.4670 15.80895416  3263
STARLINK-37645          
1 69371U 26123U   26168.58334491  .00075491  00000+0  38314-3 0  9997
2 69371  53.1578 239.3075 0000907  68.6371   2.0682 15.80846844  3260
STARLINK-37688          
1 69372U 26123V   26168.58334491  .00106682  00000+0  53866-3 0  9994
2 69372  53.1576 239.2766 0000998  76.4538   8.9494 15.80821433  3260
STARLINK-37685          
1 69373U 26123W   26168.58334491  .00072609  00000+0  36882-3 0  9995
2 69373  53.1576 239.2705 0001089  79.3440   8.9303 15.80843990  3272
STARLINK-37632          
1 69374U 26123X   26168.58334491  .00051406  00000+0  26264-3 0  9991
2 69374  53.1576 239.2618 0001071  72.9860  19.4955 15.80855663  3227
STARLINK-37454          
1 69375U 26123Y   26168.58334491  .00066014  00000+0  33580-3 0  9992
2 69375  53.1575 239.2486 0001056  75.4385  23.2975 15.80849816  3355
STARLINK-37485          
1 69376U 26123Z   26168.58334491 -.00021928  00000+0 -10775-3 0  9991
2 69376  53.1575 239.2399 0001018  77.1657  25.7657 15.80890958  3355
STARLINK-37439          
1 69377U 26123AA  26168.58334491  .00064174  00000+0  32674-3 0  9992
2 69377  53.1573 239.1554 0001344  82.9120  60.5742 15.80840772  3224
STARLINK-37376          
1 69378U 26123AB  26168.58334491 -.01892887  00000+0 -11738-1 0  9992
2 69378  53.1587 239.1870 0001189  52.9650  75.0812 15.79431199  3364
STARLINK-37383          
1 69379U 26123AC  26168.58334491 -.00014511  00000+0 -70054-4 0  9991
2 69379  53.1574 239.1126 0001143  75.3152  88.2623 15.80886729  3362
STARLINK-37411          
1 69380U 26123AD  26168.58334491  .00115297  00000+0  58166-3 0  9993
2 69380  53.1574 239.1706 0000996  84.5040  51.2698 15.80807844  3364
STARLINK-37427          
1 69381U 26123AE  26168.58334491  .00209992  00000+0  10487-2 0  9993
2 69381  53.1576 239.1222 0001124  85.1763  73.8827 15.80729622  3274
QIANFAN-165             
1 69382U 26124A   26168.61026186  .00000068  00000+0  27169-4 0  9998
2 69382  88.9984   1.9923 0002989 117.2132 242.9361 14.16012325  1873
QIANFAN-166             
1 69383U 26124B   26168.60549363  .00000064  00000+0  24821-4 0  9993
2 69383  88.9984   1.9917 0002658 106.9406 253.2074 14.17059451  1877
QIANFAN-167             
1 69384U 26124C   26168.46462509  .00000066  00000+0  25773-4 0  9993
2 69384  88.9983   2.0075 0001946 163.5845 196.5407 14.17418941  1859
QIANFAN-168             
1 69385U 26124D   26168.53113473  .00000064  00000+0  24149-4 0  9999
2 69385  88.9982   1.9991 0003098 130.2826 229.8634 14.17872848  1867
QIANFAN-169             
1 69386U 26124E   26168.59921047  .00000062  00000+0  23232-4 0  9990
2 69386  88.9983   1.9906 0003157 149.7565 210.3806 14.18286451  1873
QIANFAN-170             
1 69387U 26124F   26168.59635233  .00000063  00000+0  22986-4 0  9996
2 69387  88.9982   1.9902 0003060 124.8378 235.3099 14.19183435  1878
QIANFAN-171             
1 69388U 26124G   26168.59315298  .00000064  00000+0  23279-4 0  9990
2 69388  88.9983   1.9897 0001950 176.6852 183.4352 14.20067460  1877
QIANFAN-172             
1 69389U 26124H   26168.59441591  .00000063  00000+0  23107-4 0  9996
2 69389  88.9983   1.9899 0002352 149.8079 210.3247 14.19638265  1878
QIANFAN-173             
1 69390U 26124J   26168.59172098  .00000065  00000+0  23525-4 0  9997
2 69390  88.9983   1.9895 0002697 139.6879 220.4512 14.20509562  1879
QIANFAN-174             
1 69391U 26124K   26168.23647968  .00000069  00000+0  25190-4 0  9996
2 69391  88.9981   2.0294 0002507 144.4339 215.7019 14.21095933  1825
QIANFAN-175             
1 69392U 26124L   26168.09532125  .00000071  00000+0  25728-4 0  9999
2 69392  88.9963   2.0447 0003585 165.6011 194.5283 14.21359621  1807
QIANFAN-176             
1 69393U 26124M   26167.88266550  .00000076  00000+0  27253-4 0  9992
2 69393  88.9986   2.0688 0002134 171.6133 188.5095 14.22887406  1779
QIANFAN-177             
1 69394U 26124N   26168.37337840  .00000074  00000+0  26193-4 0  9999
2 69394  88.9983   2.0125 0003337 148.4265 211.7128 14.23471928  1840
QIANFAN-178             
1 69395U 26124P   26168.30373049  .00000074  00000+0  26216-4 0  9990
2 69395  88.9983   2.0207 0002658 150.7099 209.4242 14.23137501  1834
QIANFAN-179             
1 69396U 26124Q   26168.44224275  .00000075  00000+0  26334-4 0  9994
2 69396  88.9983   2.0041 0002722 155.2718 204.8605 14.23807523  1853
