OBJECT_NAME,OBJECT_ID,EPOCH,MEAN_MOTION,ECCENTRICITY,INCLINATION,RA_OF_ASC_NODE,ARG_OF_PERICENTER,MEAN_ANOMALY,EPHEMERIS_TYPE,CLASSIFICATION_TYPE,NORAD_CAT_ID,ELEMENT_SET_NO,REV_AT_EPOCH,BSTAR,MEAN_MOTION_DOT,MEAN_MOTION_DDOT
STARLINK-37683,2026-123Q,2026-06-17T14:00:01.000224,15.77727358,.00007986,53.1592,239.3389,68.9191,346.6662,0,U,69367,999,321,-.11838829E-1,-.1781609E-1,0
STARLINK-37687,2026-123R,2026-06-17T14:00:01.000224,15.80846036,.00009744,53.1583,239.2816,79.1216,4.3430,0,U,69368,999,321,.35543115E-3,.69934E-3,0
STARLINK-37631,2026-123S,2026-06-17T14:00:01.000224,15.80900877,.00012144,53.1583,239.2912,82.7022,356.2375,0,U,69369,999,326,-.20355697E-3,-.40738E-3,0
STARLINK-37673,2026-123T,2026-06-17T14:00:01.000224,15.80895416,.00012589,53.1580,239.2861,80.9519,0.4670,0,U,69370,999,326,-.19632744E-3,-.39312E-3,0
STARLINK-37645,2026-123U,2026-06-17T14:00:01.000224,15.80846844,.00009071,53.1578,239.3075,68.6371,2.0682,0,U,69371,999,326,.38313571E-3,.75491E-3,0
STARLINK-37688,2026-123V,2026-06-17T14:00:01.000224,15.80821433,.00009984,53.1576,239.2766,76.4538,8.9494,0,U,69372,999,326,.53865933E-3,.106682E-2,0
STARLINK-37685,2026-123W,2026-06-17T14:00:01.000224,15.80843990,.00010896,53.1576,239.2705,79.3440,8.9303,0,U,69373,999,327,.36881518E-3,.72609E-3,0
STARLINK-37632,2026-123X,2026-06-17T14:00:01.000224,15.80855663,.00010718,53.1576,239.2618,72.9860,19.4955,0,U,69374,999,322,.26264238E-3,.51406E-3,0
STARLINK-37454,2026-123Y,2026-06-17T14:00:01.000224,15.80849816,.00010565,53.1575,239.2486,75.4385,23.2975,0,U,69375,999,335,.33579831E-3,.66014E-3,0
STARLINK-37485,2026-123Z,2026-06-17T14:00:01.000224,15.80890958,.00010187,53.1575,239.2399,77.1657,25.7657,0,U,69376,999,335,-.10774625E-3,-.21928E-3,0
STARLINK-37439,2026-123AA,2026-06-17T14:00:01.000224,15.80840772,.00013444,53.1573,239.1554,82.9120,60.5742,0,U,69377,999,322,.32674056E-3,.64174E-3,0
STARLINK-37376,2026-123AB,2026-06-17T14:00:01.000224,15.79431199,.00011898,53.1587,239.1870,52.9650,75.0812,0,U,69378,999,336,-.11737605E-1,-.1892887E-1,0
STARLINK-37383,2026-123AC,2026-06-17T14:00:01.000224,15.80886729,.00011438,53.1574,239.1126,75.3152,88.2623,0,U,69379,999,336,-.7005364E-4,-.14511E-3,0
STARLINK-37411,2026-123AD,2026-06-17T14:00:01.000224,15.80807844,.00009961,53.1574,239.1706,84.5040,51.2698,0,U,69380,999,336,.58165678E-3,.115297E-2,0
STARLINK-37427,2026-123AE,2026-06-17T14:00:01.000224,15.80729622,.0001124,53.1576,239.1222,85.1763,73.8827,0,U,69381,999,327,.10486719E-2,.209992E-2,0
QIANFAN-165,2026-124A,2026-06-17T14:38:46.624704,14.16012325,.00029899,88.9984,1.9923,117.2132,242.9361,0,U,69382,999,187,.27169299E-4,.68E-6,0
QIANFAN-166,2026-124B,2026-06-17T14:31:54.649632,14.17059451,.00026589,88.9984,1.9917,106.9406,253.2074,0,U,69383,999,187,.24820889E-4,.64E-6,0
QIANFAN-167,2026-124C,2026-06-17T11:09:03.607776,14.17418941,.00019463,88.9983,2.0075,163.5845,196.5407,0,U,69384,999,185,.25773458E-4,.66E-6,0
QIANFAN-168,2026-124D,2026-06-17T12:44:50.040672,14.17872848,.0003098,88.9982,1.9991,130.2826,229.8634,0,U,69385,999,186,.241488E-4,.64E-6,0
QIANFAN-169,2026-124E,2026-06-17T14:22:51.784608,14.18286451,.00031572,88.9983,1.9906,149.7565,210.3806,0,U,69386,999,187,.2323204E-4,.62E-6,0
QIANFAN-170,2026-124F,2026-06-17T14:18:44.841312,14.19183435,.00030605,88.9982,1.9902,124.8378,235.3099,0,U,69387,999,187,.2298597E-4,.63E-6,0
QIANFAN-171,2026-124G,2026-06-17T14:14:08.417472,14.20067460,.00019506,88.9983,1.9897,176.6852,183.4352,0,U,69388,999,187,.23278984E-4,.64E-6,0
QIANFAN-172,2026-124H,2026-06-17T14:15:57.534624,14.19638265,.00023523,88.9983,1.9899,149.8079,210.3247,0,U,69389,999,187,.23107083E-4,.63E-6,0
QIANFAN-173,2026-124J,2026-06-17T14:12:04.692672,14.20509562,.0002697,88.9983,1.9895,139.6879,220.4512,0,U,69390,999,187,.23525211E-4,.65E-6,0
QIANFAN-174,2026-124K,2026-06-17T05:40:31.844352,14.21095933,.00025074,88.9981,2.0294,144.4339,215.7019,0,U,69391,999,182,.25190364E-4,.69E-6,0
QIANFAN-175,2026-124L,2026-06-17T02:17:15.756000,14.21359621,.00035856,88.9963,2.0447,165.6011,194.5283,0,U,69392,999,180,.25728207E-4,.71E-6,0
QIANFAN-176,2026-124M,2026-06-16T21:11:02.299200,14.22887406,.0002134,88.9986,2.0688,171.6133,188.5095,0,U,69393,999,177,.2725303E-4,.76E-6,0
QIANFAN-177,2026-124N,2026-06-17T08:57:39.893760,14.23471928,.00033377,88.9983,2.0125,148.4265,211.7128,0,U,69394,999,184,.26193462E-4,.74E-6,0
QIANFAN-178,2026-124P,2026-06-17T07:17:22.314336,14.23137501,.00026588,88.9983,2.0207,150.7099,209.4242,0,U,69395,999,183,.26215924E-4,.74E-6,0
QIANFAN-179,2026-124Q,2026-06-17T10:36:49.773600,14.23807523,.00027222,88.9983,2.0041,155.2718,204.8605,0,U,69396,999,185,.26333537E-4,.75E-6,0
